CCSDS_OMM_VERS = 2.0
CREATION_DATE  = 
ORIGINATOR     = 

OBJECT_NAME    = CZ-2C R/B
OBJECT_ID      = 2025-266D
CENTER_NAME    = EARTH
REF_FRAME      = TEME
TIME_SYSTEM    = UTC
MEAN_ELEMENT_THEORY = SGP/SGP4

EPOCH          = 2025-12-06T22:03:51.685344
MEAN_MOTION    = 15.29995565
ECCENTRICITY   = .00843187
INCLINATION    = 52.0564
RA_OF_ASC_NODE = 359.0050
ARG_OF_PERICENTER = 153.2198
MEAN_ANOMALY   = 207.3179

EPHEMERIS_TYPE = 0
CLASSIFICATION_TYPE = U
NORAD_CAT_ID   = 66548
ELEMENT_SET_NO = 999
REV_AT_EPOCH   = 272
BSTAR          = .53172829E-3
MEAN_MOTION_DOT = .17101E-3
MEAN_MOTION_DDOT = 0

CCSDS_OMM_VERS = 2.0
CREATION_DATE  = 
ORIGINATOR     = 

OBJECT_NAME    = SHIJIAN-28
OBJECT_ID      = 2025-277A
CENTER_NAME    = EARTH
REF_FRAME      = TEME
TIME_SYSTEM    = UTC
MEAN_ELEMENT_THEORY = SGP/SGP4

EPOCH          = 2025-11-30T18:06:43.124256
MEAN_MOTION    = 2.28019775
ECCENTRICITY   = .7300519
INCLINATION    = 14.4344
RA_OF_ASC_NODE = 275.4056
ARG_OF_PERICENTER = 179.5026
MEAN_ANOMALY   = 182.3580

EPHEMERIS_TYPE = 0
CLASSIFICATION_TYPE = U
NORAD_CAT_ID   = 66549
ELEMENT_SET_NO = 999
REV_AT_EPOCH   = 4
BSTAR          = .62085E-3
MEAN_MOTION_DOT = .6315E-4
MEAN_MOTION_DDOT = 0

CCSDS_OMM_VERS = 2.0
CREATION_DATE  = 
ORIGINATOR     = 

OBJECT_NAME    = CZ-7A R/B
OBJECT_ID      = 2025-277B
CENTER_NAME    = EARTH
REF_FRAME      = TEME
TIME_SYSTEM    = UTC
MEAN_ELEMENT_THEORY = SGP/SGP4

EPOCH          = 2025-12-06T11:25:58.783584
MEAN_MOTION    = 2.49148263
ECCENTRICITY   = .7169465
INCLINATION    = 14.4071
RA_OF_ASC_NODE = 272.9582
ARG_OF_PERICENTER = 183.2116
MEAN_ANOMALY   = 166.6906

EPHEMERIS_TYPE = 0
CLASSIFICATION_TYPE = U
NORAD_CAT_ID   = 66550
ELEMENT_SET_NO = 999
REV_AT_EPOCH   = 18
BSTAR          = .29638743E-2
MEAN_MOTION_DOT = .1473319E-1
MEAN_MOTION_DDOT = .1649722E-5

CCSDS_OMM_VERS = 2.0
CREATION_DATE  = 
ORIGINATOR     = 

OBJECT_NAME    = UNKNOWN
OBJECT_ID      = 2025-271AE
CENTER_NAME    = EARTH
REF_FRAME      = TEME
TIME_SYSTEM    = UTC
MEAN_ELEMENT_THEORY = SGP/SGP4

EPOCH          = 2025-12-02T16:00:03.000096
MEAN_MOTION    = 15.87051116
ECCENTRICITY   = .0000717
INCLINATION    = 53.1571
RA_OF_ASC_NODE = 236.7807
ARG_OF_PERICENTER = 110.7411
MEAN_ANOMALY   = 313.9012

EPHEMERIS_TYPE = 0
CLASSIFICATION_TYPE = U
NORAD_CAT_ID   = 66551
ELEMENT_SET_NO = 999
REV_AT_EPOCH   = 262
BSTAR          = -.74303E-2
MEAN_MOTION_DOT = -.1709685E-1
MEAN_MOTION_DDOT = 0

CCSDS_OMM_VERS = 2.0
CREATION_DATE  = 
ORIGINATOR     = 

OBJECT_NAME    = GLOBAL-33
OBJECT_ID      = 2025-267A
CENTER_NAME    = EARTH
REF_FRAME      = TEME
TIME_SYSTEM    = UTC
MEAN_ELEMENT_THEORY = SGP/SGP4

EPOCH          = 2025-12-06T15:56:11.872320
MEAN_MOTION    = 15.31428184
ECCENTRICITY   = .00050435
INCLINATION    = 42.0198
RA_OF_ASC_NODE = 92.0641
ARG_OF_PERICENTER = 9.1324
MEAN_ANOMALY   = 350.9604

EPHEMERIS_TYPE = 0
CLASSIFICATION_TYPE = U
NORAD_CAT_ID   = 66554
ELEMENT_SET_NO = 999
REV_AT_EPOCH   = 247
BSTAR          = .69840721E-3
MEAN_MOTION_DOT = .21474E-3
MEAN_MOTION_DDOT = 0

CCSDS_OMM_VERS = 2.0
CREATION_DATE  = 
ORIGINATOR     = 

OBJECT_NAME    = ELECTRON KICK STAGE R/B
OBJECT_ID      = 2025-267B
CENTER_NAME    = EARTH
REF_FRAME      = TEME
TIME_SYSTEM    = UTC
MEAN_ELEMENT_THEORY = SGP/SGP4

EPOCH          = 2025-12-06T14:11:19.744800
MEAN_MOTION    = 15.32375133
ECCENTRICITY   = .00070081
INCLINATION    = 42.0184
RA_OF_ASC_NODE = 92.3831
ARG_OF_PERICENTER = 7.6662
MEAN_ANOMALY   = 352.4282

EPHEMERIS_TYPE = 0
CLASSIFICATION_TYPE = U
NORAD_CAT_ID   = 66555
ELEMENT_SET_NO = 999
REV_AT_EPOCH   = 246
BSTAR          = .11819859E-2
MEAN_MOTION_DOT = .37718E-3
MEAN_MOTION_DDOT = 0

CCSDS_OMM_VERS = 2.0
CREATION_DATE  = 
ORIGINATOR     = 

OBJECT_NAME    = STARLINK-35699
OBJECT_ID      = 2025-268A
CENTER_NAME    = EARTH
REF_FRAME      = TEME
TIME_SYSTEM    = UTC
MEAN_ELEMENT_THEORY = SGP/SGP4

EPOCH          = 2025-12-06T22:00:01.999584
MEAN_MOTION    = 15.60632446
ECCENTRICITY   = .0001581
INCLINATION    = 42.9998
RA_OF_ASC_NODE = 155.3559
ARG_OF_PERICENTER = 272.3136
MEAN_ANOMALY   = 1.1269

EPHEMERIS_TYPE = 0
CLASSIFICATION_TYPE = U
NORAD_CAT_ID   = 66557
ELEMENT_SET_NO = 999
REV_AT_EPOCH   = 373
BSTAR          = -.25909306E-1
MEAN_MOTION_DOT = -.1944004E-1
MEAN_MOTION_DDOT = 0

CCSDS_OMM_VERS = 2.0
CREATION_DATE  = 
ORIGINATOR     = 

OBJECT_NAME    = STARLINK-35695
OBJECT_ID      = 2025-268B
CENTER_NAME    = EARTH
REF_FRAME      = TEME
TIME_SYSTEM    = UTC
MEAN_ELEMENT_THEORY = SGP/SGP4

EPOCH          = 2025-12-06T22:00:01.999584
MEAN_MOTION    = 15.60630770
ECCENTRICITY   = .0001587
INCLINATION    = 42.9995
RA_OF_ASC_NODE = 155.3509
ARG_OF_PERICENTER = 271.6952
MEAN_ANOMALY   = 3.6633

EPHEMERIS_TYPE = 0
CLASSIFICATION_TYPE = U
NORAD_CAT_ID   = 66558
ELEMENT_SET_NO = 999
REV_AT_EPOCH   = 373
BSTAR          = -.25875621E-1
MEAN_MOTION_DOT = -.1941673E-1
MEAN_MOTION_DDOT = 0

CCSDS_OMM_VERS = 2.0
CREATION_DATE  = 
ORIGINATOR     = 

OBJECT_NAME    = STARLINK-35419
OBJECT_ID      = 2025-268C
CENTER_NAME    = EARTH
REF_FRAME      = TEME
TIME_SYSTEM    = UTC
MEAN_ELEMENT_THEORY = SGP/SGP4

EPOCH          = 2025-12-06T22:00:01.999584
MEAN_MOTION    = 15.60626038
ECCENTRICITY   = .0001598
INCLINATION    = 42.9998
RA_OF_ASC_NODE = 155.3472
ARG_OF_PERICENTER = 270.5824
MEAN_ANOMALY   = 6.6955

EPHEMERIS_TYPE = 0
CLASSIFICATION_TYPE = U
NORAD_CAT_ID   = 66559
ELEMENT_SET_NO = 999
REV_AT_EPOCH   = 373
BSTAR          = -.25797889E-1
MEAN_MOTION_DOT = -.1936229E-1
MEAN_MOTION_DDOT = 0

CCSDS_OMM_VERS = 2.0
CREATION_DATE  = 
ORIGINATOR     = 

OBJECT_NAME    = STARLINK-35411
OBJECT_ID      = 2025-268D
CENTER_NAME    = EARTH
REF_FRAME      = TEME
TIME_SYSTEM    = UTC
MEAN_ELEMENT_THEORY = SGP/SGP4

EPOCH          = 2025-12-06T22:00:01.999584
MEAN_MOTION    = 15.60628229
ECCENTRICITY   = .00016177
INCLINATION    = 42.9998
RA_OF_ASC_NODE = 155.3423
ARG_OF_PERICENTER = 268.9241
MEAN_ANOMALY   = 10.2697

EPHEMERIS_TYPE = 0
CLASSIFICATION_TYPE = U
NORAD_CAT_ID   = 66560
ELEMENT_SET_NO = 999
REV_AT_EPOCH   = 373
BSTAR          = -.25831554E-1
MEAN_MOTION_DOT = -.1938613E-1
MEAN_MOTION_DDOT = 0

CCSDS_OMM_VERS = 2.0
CREATION_DATE  = 
ORIGINATOR     = 

OBJECT_NAME    = STARLINK-35305
OBJECT_ID      = 2025-268E
CENTER_NAME    = EARTH
REF_FRAME      = TEME
TIME_SYSTEM    = UTC
MEAN_ELEMENT_THEORY = SGP/SGP4

EPOCH          = 2025-12-06T22:00:01.999584
MEAN_MOTION    = 15.60626195
ECCENTRICITY   = .00015938
INCLINATION    = 42.9999
RA_OF_ASC_NODE = 155.3319
ARG_OF_PERICENTER = 270.0587
MEAN_ANOMALY   = 12.9710

EPHEMERIS_TYPE = 0
CLASSIFICATION_TYPE = U
NORAD_CAT_ID   = 66561
ELEMENT_SET_NO = 999
REV_AT_EPOCH   = 368
BSTAR          = -.25801967E-1
MEAN_MOTION_DOT = -.1936506E-1
MEAN_MOTION_DDOT = 0

CCSDS_OMM_VERS = 2.0
CREATION_DATE  = 
ORIGINATOR     = 

OBJECT_NAME    = STARLINK-35579
OBJECT_ID      = 2025-268F
CENTER_NAME    = EARTH
REF_FRAME      = TEME
TIME_SYSTEM    = UTC
MEAN_ELEMENT_THEORY = SGP/SGP4

EPOCH          = 2025-12-06T22:00:01.999584
MEAN_MOTION    = 15.60628411
ECCENTRICITY   = .00015313
INCLINATION    = 42.9996
RA_OF_ASC_NODE = 155.3364
ARG_OF_PERICENTER = 268.4782
MEAN_ANOMALY   = 12.6335

EPHEMERIS_TYPE = 0
CLASSIFICATION_TYPE = U
NORAD_CAT_ID   = 66562
ELEMENT_SET_NO = 999
REV_AT_EPOCH   = 373
BSTAR          = -.25835849E-1
MEAN_MOTION_DOT = -.1938848E-1
MEAN_MOTION_DDOT = 0

