CZ-2C R/B               
1 66548U 25266D   25340.91934821  .00017101  00000+0  53173-3 0  9992
2 66548  52.0564 359.0050 0084318 153.2198 207.3179 15.29995565  2724
SHIJIAN-28              
1 66549U 25277A   25334.75466579  .00006315  00000+0  62085-3 0  9997
2 66549  14.4344 275.4056 7300519 179.5026 182.3580  2.28019775    48
CZ-7A R/B               
1 66550U 25277B   25340.47637481  .01473319  16497-5  29639-2 0  9990
2 66550  14.4071 272.9582 7169465 183.2116 166.6906  2.49148263   188
UNKNOWN                 
1 66551U 25271AE  25336.66670139 -.01709685  00000+0 -74303-2 0  9993
2 66551  53.1571 236.7807 0000717 110.7411 313.9012 15.87051116  2624
GLOBAL-33               
1 66554U 25267A   25340.66402630  .00021474  00000+0  69841-3 0  9997
2 66554  42.0198  92.0641 0005043   9.1324 350.9604 15.31428184  2472
ELECTRON KICK STAGE R/B 
1 66555U 25267B   25340.59120075  .00037718  00000+0  11820-2 0  9991
2 66555  42.0184  92.3831 0007008   7.6662 352.4282 15.32375133  2467
STARLINK-35699          
1 66557U 25268A   25340.91668981 -.01944004  00000+0 -25909-1 0  9993
2 66557  42.9998 155.3559 0001581 272.3136   1.1269 15.60632446  3733
STARLINK-35695          
1 66558U 25268B   25340.91668981 -.01941673  00000+0 -25876-1 0  9996
2 66558  42.9995 155.3509 0001587 271.6952   3.6633 15.60630770  3730
STARLINK-35419          
1 66559U 25268C   25340.91668981 -.01936229  00000+0 -25798-1 0  9991
2 66559  42.9998 155.3472 0001598 270.5824   6.6955 15.60626038  3733
STARLINK-35411          
1 66560U 25268D   25340.91668981 -.01938613  00000+0 -25832-1 0  9991
2 66560  42.9998 155.3423 0001617 268.9241  10.2697 15.60628229  3735
STARLINK-35305          
1 66561U 25268E   25340.91668981 -.01936506  00000+0 -25802-1 0  9998
2 66561  42.9999 155.3319 0001593 270.0587  12.9710 15.60626195  3680
STARLINK-35579          
1 66562U 25268F   25340.91668981 -.01938848  00000+0 -25836-1 0  9997
2 66562  42.9996 155.3364 0001531 268.4782  12.6335 15.60628411  3737
